*******************************************************************************
Revised: April 12, 2021         Earth Barycenter                              3
 
 Dynamical point:
 ---------------
 The common point about which the Earth and Moon revolve (center of mass). This
 is approximately 4671 km from the center of the Earth, or about 3/4 of the way 
 to the surface. See 399 for Earth center, or 301 for Moon center ephemeris.
*******************************************************************************


*******************************************************************************
Ephemeris / WWW_USER Mon Jun 16 07:57:05 2025 Pasadena, USA      / Horizons
*******************************************************************************
Target body name: Earth-Moon Barycenter (3)       {source: DE441}
Center body name: Solar System Barycenter (0)     {source: DE441}
Center-site name: BODY CENTER
*******************************************************************************
Start time      : A.D. 2024-Jan-01 00:00:00.0000 TDB
Stop  time      : A.D. 2024-Mar-01 00:00:00.0000 TDB
Step-size       : 1440 minutes
*******************************************************************************
Center geodetic : 0.0, 0.0, 0.0                   {E-lon(deg),Lat(deg),Alt(km)}
Center cylindric: 0.0, 0.0, 0.0                   {E-lon(deg),Dxy(km),Dz(km)}
Center radii    : (undefined)
Keplerian GM    : 1.3288930831416745E+11 km^3/s^2
Output units    : KM-S, deg, Julian Day Number (Tp)
Calendar mode   : Mixed Julian/Gregorian
Output type     : GEOMETRIC osculating elements
Output format   : 10
Reference frame : Ecliptic of J2000.0
*******************************************************************************
            JDTDB,            Calendar Date (TDB),                     EC,                     QR,                     IN,                     OM,                      W,                     Tp,                      N,                     MA,                     TA,                      A,                     AD,                     PR,
**************************************************************************************************************************************************************************************************************************************************************************************************************************************************
$$SOE
2460310.500000000, A.D. 2024-Jan-01 00:00:00.0000,  1.513913930041730E-02,  1.466185835802176E+08,  9.210993545298243E-03,  1.432664085927617E+01,  5.743291446810953E+01,  2.460282697628033E+06,  1.149863904415219E-05,  2.762116760027023E+01,  2.843914809133306E+01,  1.488723833294269E+08,  1.511261830786363E+08,  3.130805294589045E+07,
2460311.500000000, A.D. 2024-Jan-02 00:00:00.0000,  1.543930486621143E-02,  1.466186844475262E+08,  9.226933752750016E-03,  1.565043602116458E+01,  5.639896978171865E+01,  2.460282985132307E+06,  1.149337075721420E-05,  2.831604017641105E+01,  2.916970216192139E+01,  1.489178728870571E+08,  1.512170613265881E+08,  3.132240381039077E+07,
2460312.500000000, A.D. 2024-Jan-03 00:00:00.0000,  1.573665043579035E-02,  1.466193093582591E+08,  9.243990168865870E-03,  1.697090050636312E+01,  5.539420077538679E+01,  2.460283297862747E+06,  1.148809106309538E-05,  2.898519655698048E+01,  2.987429276746703E+01,  1.489634958196665E+08,  1.513076822810739E+08,  3.133679895317619E+07,
2460313.500000000, A.D. 2024-Jan-04 00:00:00.0000,  1.603096666795283E-02,  1.466204752690544E+08,  9.262149245409149E-03,  1.828785097252089E+01,  5.441707539163090E+01,  2.460283634127387E+06,  1.148280169678935E-05,  2.963035233034168E+01,  3.055462450850219E+01,  1.490092373868195E+08,  1.513979995045847E+08,  3.135123374120949E+07,
2460314.500000000, A.D. 2024-Jan-05 00:00:00.0000,  1.632205535969244E-02,  1.466221975205117E+08,  9.281396831988788E-03,  1.960111280821572E+01,  5.346618332366773E+01,  2.460283992363285E+06,  1.147750438968737E-05,  3.025309256517186E+01,  3.121227155110365E+01,  1.490550828341747E+08,  1.514879681478376E+08,  3.136570353425112E+07,
2460315.500000000, A.D. 2024-Jan-06 00:00:00.0000,  1.660972863058752E-02,  1.466244899679016E+08,  9.301718191895812E-03,  2.091051853858718E+01,  5.254022601605747E+01,  2.460284371125073E+06,  1.147220086816129E-05,  3.085488339533527E+01,  3.184868922469905E+01,  1.491010174055523E+08,  1.515775448432030E+08,  3.138020368864926E+07,
2460316.500000000, A.D. 2024-Jan-07 00:00:00.0000,  1.689380818159684E-02,  1.466273650954221E+08,  9.323097999946225E-03,  2.221590598176265E+01,  5.163800789730047E+01,  2.460284769074491E+06,  1.146689285280061E-05,  3.143708262126273E+01,  3.246522463709972E+01,  1.491470263494248E+08,  1.516666876034275E+08,  3.139472955937454E+07,
2460317.500000000, A.D. 2024-Jan-08 00:00:00.0000,  1.717412460811443E-02,  1.466308341162598E+08,  9.345520325331737E-03,  2.351711642723367E+01,  5.075842850421450E+01,  2.460285184970811E+06,  1.146158205838757E-05,  3.200094939799492E+01,  3.306312637575198E+01,  1.491930949190701E+08,  1.517553557218804E+08,  3.140927650005807E+07,
2460318.500000000, A.D. 2024-Jan-09 00:00:00.0000,  1.745051674985013E-02,  1.466349070608692E+08,  9.368968606559527E-03,  2.481399316924222E+01,  4.990047511069860E+01,  2.460285617662108E+06,  1.145627019462816E-05,  3.254765306568392E+01,  3.364355334951250E+01,  1.492392083661979E+08,  1.518435096715266E+08,  3.142383986097009E+07,
2460319.500000000, A.D. 2024-Jan-10 00:00:00.0000,  1.772283106554842E-02,  1.466395928561334E+08,  9.393425629571813E-03,  2.610638077068078E+01,  4.906321545043227E+01,  2.460286066077351E+06,  1.145095896753359E-05,  3.307828115921315E+01,  3.420758280587253E+01,  1.492853519289307E+08,  1.519311110017281E+08,  3.143841498521586E+07,
2460320.500000000, A.D. 2024-Jan-11 00:00:00.0000,  1.799092103072669E-02,  1.466448993983550E+08,  9.418873523584979E-03,  2.739412542108293E+01,  4.824579015779361E+01,  2.460286529219280E+06,  1.144565008113580E-05,  3.359384661080633E+01,  3.475621753575096E+01,  1.493315108168603E+08,  1.520181222353655E+08,  3.145299720400641E+07,
2460321.500000000, A.D. 2024-Jan-12 00:00:00.0000,  1.825464657073063E-02,  1.466508336227487E+08,  9.445293787893850E-03,  2.867707653960609E+01,  4.744740476737260E+01,  2.460287006158085E+06,  1.144034523900805E-05,  3.409529415521558E+01,  3.529039227457735E+01,  1.493776701977682E+08,  1.521045067727876E+08,  3.146758183245301E+07,
2460322.500000000, A.D. 2024-Jan-13 00:00:00.0000,  1.851387355360372E-02,  1.466574015710577E+08,  9.472667355926190E-03,  2.995508941411304E+01,  4.666732144799989E+01,  2.460287496025835E+06,  1.143504614497207E-05,  3.458350596965050E+01,  3.581097933265207E+01,  1.494238151914085E+08,  1.521902288117593E+08,  3.148216416759193E+07,
2460323.500000000, A.D. 2024-Jan-14 00:00:00.0000,  1.876847337467071E-02,  1.466646084577872E+08,  9.500974693256895E-03,  3.122802836622452E+01,  4.590485092449983E+01,  2.460287998011613E+06,  1.142975450237787E-05,  3.505930660306412E+01,  3.631879351173890E+01,  1.494699308757425E+08,  1.522752532936977E+08,  3.149673949034557E+07,
2460324.500000000, A.D. 2024-Jan-15 00:00:00.0000,  1.901832265252314E-02,  1.466724587329819E+08,  9.530195909976587E-03,  3.249576946448630E+01,  4.515934542079020E+01,  2.460288511357210E+06,  1.142447201185635E-05,  3.552346733453616E+01,  3.681459645217234E+01,  1.495160023065635E+08,  1.523595458801451E+08,  3.151130307172104E+07,
2460325.500000000, A.D. 2024-Jan-16 00:00:00.0000,  1.926330303611411E-02,  1.466809561390864E+08,  9.560310864285750E-03,  3.375820205631403E+01,  4.443019320364926E+01,  2.460289035353238E+06,  1.141920036783903E-05,  3.597671010703795E+01,  3.729910056053793E+01,  1.495620145480165E+08,  1.524430729569467E+08,  3.152585018246129E+07,
2460326.500000000, A.D. 2024-Jan-17 00:00:00.0000,  1.950330109900906E-02,  1.466901037593891E+08,  9.591299235676941E-03,  3.501522869374329E+01,  4.371681500139090E+01,  2.460289569335507E+06,  1.141394125455560E-05,  3.641971118489748E+01,  3.777297266868570E+01,  1.496079527078568E+08,  1.525258016563244E+08,  3.154037610420632E+07,
2460327.500000000, A.D. 2024-Jan-18 00:00:00.0000,  1.973820827874201E-02,  1.466999040567248E+08,  9.623140555724524E-03,  3.626676352720953E+01,  4.301866211272930E+01,  2.460290112681570E+06,  1.140869634239721E-05,  3.685310464542407E+01,  3.823683753457033E+01,  1.496538019697086E+08,  1.526076998826924E+08,  3.155487613971819E+07,
2460328.500000000, A.D. 2024-Jan-19 00:00:00.0000,  1.996792082084174E-02,  1.467103589031308E+08,  9.655814199036584E-03,  3.751272972806243E+01,  4.233521561072435E+01,  2.460290664807381E+06,  1.140346728526777E-05,  3.727748574136687E+01,  3.869128121929760E+01,  1.496995476168601E+08,  1.526887363305894E+08,  3.156934562044011E+07,
2460329.500000000, A.D. 2024-Jan-20 00:00:00.0000,  2.019233969841976E-02,  1.467214696023824E+08,  9.689299346714590E-03,  3.875305664375441E+01,  4.166598595190708E+01,  2.460291225164103E+06,  1.139825571920321E-05,  3.769341412331296E+01,  3.913685432630088E+01,  1.497451750450922E+08,  1.527688804878021E+08,  3.158377991059544E+07,
2460330.500000000, A.D. 2024-Jan-21 00:00:00.0000,  2.041137049291012E-02,  1.467332369078841E+08,  9.723574938874498E-03,  3.998767731495139E+01,  4.101051240006282E+01,  2.460291793235084E+06,  1.139306326221868E-05,  3.810141688632021E+01,  3.957407506387804E+01,  1.497906697648353E+08,  1.528481026217864E+08,  3.159817440791546E+07,
2460331.500000000, A.D. 2024-Jan-22 00:00:00.0000,  2.062492323517526E-02,  1.467456610383642E+08,  9.758619632850641E-03,  4.121652678720970E+01,  4.036836187595369E+01,  2.460292368533050E+06,  1.138789151510905E-05,  3.850199139915539E+01,  4.000343208712734E+01,  1.498360173950004E+08,  1.529263737516366E+08,  3.161252454173495E+07,
